{
  "norad_id": 58777,
  "name": "STARLINK-31132",
  "history": [
    {
      "epoch": "2026-03-28T18:59:14.991936Z",
      "apogee_km": 475.71213925648317,
      "perigee_km": 474.66933690785663,
      "latitude_deg": -1.435036288375215e-05,
      "longitude_deg": 83.79089820031746,
      "height_km": 475.829125385521,
      "semi_major_axis_km": 6853.32773808217,
      "eccentricity": 7.608e-05,
      "inclination_deg": 53.1603,
      "raan_deg": 194.8099,
      "arg_perigee_deg": 60.0201,
      "mean_anomaly_deg": 300.0875,
      "mean_motion_rev_day": 15.30208149
    },
    {
      "epoch": "2026-03-28T23:41:26.614176Z",
      "apogee_km": 476.01657205506035,
      "perigee_km": 474.5184178324653,
      "latitude_deg": 1.021016235177916e-05,
      "longitude_deg": 12.138435695400677,
      "height_km": 475.93623807667024,
      "semi_major_axis_km": 6853.404494943762,
      "eccentricity": 0.0001093,
      "inclination_deg": 53.1603,
      "raan_deg": 193.899,
      "arg_perigee_deg": 72.1452,
      "mean_anomaly_deg": 287.9668,
      "mean_motion_rev_day": 15.30182442
    },
    {
      "epoch": "2026-03-29T23:12:13.691232Z",
      "apogee_km": 476.02846005938136,
      "perigee_km": 474.45040160241933,
      "latitude_deg": 2.16789709316036e-05,
      "longitude_deg": 13.926942568172729,
      "height_km": 475.92542921619344,
      "semi_major_axis_km": 6853.3764308309,
      "eccentricity": 0.00011513,
      "inclination_deg": 53.1606,
      "raan_deg": 189.3493,
      "arg_perigee_deg": 74.387,
      "mean_anomaly_deg": 285.7258,
      "mean_motion_rev_day": 15.30191841
    },
    {
      "epoch": "2026-03-30T13:18:42.312960Z",
      "apogee_km": 475.97838584744477,
      "perigee_km": 474.4591339425915,
      "latitude_deg": -1.0600674072108456e-05,
      "longitude_deg": 158.99726903840343,
      "height_km": 475.8765155433992,
      "semi_major_axis_km": 6853.355759895017,
      "eccentricity": 0.00011084,
      "inclination_deg": 53.1602,
      "raan_deg": 186.6183,
      "arg_perigee_deg": 71.531,
      "mean_anomaly_deg": 288.5811,
      "mean_motion_rev_day": 15.30198764
    },
    {
      "epoch": "2026-03-30T16:26:48.399360Z",
      "apogee_km": 476.04803013756464,
      "perigee_km": 474.3558036922004,
      "latitude_deg": -6.988794620015185e-06,
      "longitude_deg": 111.23506101969399,
      "height_km": 475.7456423523429,
      "semi_major_axis_km": 6853.338916914882,
      "eccentricity": 0.00012346,
      "inclination_deg": 53.1606,
      "raan_deg": 186.0102,
      "arg_perigee_deg": 65.2207,
      "mean_anomaly_deg": 294.8922,
      "mean_motion_rev_day": 15.30204405
    },
    {
      "epoch": "2026-03-31T12:49:31.587168Z",
      "apogee_km": 476.2975956557693,
      "perigee_km": 474.25473026015516,
      "latitude_deg": 5.537834823600889e-06,
      "longitude_deg": 160.77660030417243,
      "height_km": 476.09208016954284,
      "semi_major_axis_km": 6853.413162957962,
      "eccentricity": 0.00014904,
      "inclination_deg": 53.1603,
      "raan_deg": 182.0686,
      "arg_perigee_deg": 85.4019,
      "mean_anomaly_deg": 274.7152,
      "mean_motion_rev_day": 15.30179539
    },
    {
      "epoch": "2026-04-01T12:20:18.537216Z",
      "apogee_km": 476.11261218181426,
      "perigee_km": 474.3321094198791,
      "latitude_deg": -2.8188515917080492e-05,
      "longitude_deg": 162.56310495573462,
      "height_km": 475.9373409508518,
      "semi_major_axis_km": 6853.359360800847,
      "eccentricity": 0.0001299,
      "inclination_deg": 53.1607,
      "raan_deg": 177.5164,
      "arg_perigee_deg": 78.1262,
      "mean_anomaly_deg": 281.9884,
      "mean_motion_rev_day": 15.30197558
    },
    {
      "epoch": "2026-04-02T11:51:06.421248Z",
      "apogee_km": 476.3163809895959,
      "perigee_km": 474.18018079754165,
      "latitude_deg": 3.419945253107112e-05,
      "longitude_deg": 164.34967861639862,
      "height_km": 475.9990592597246,
      "semi_major_axis_km": 6853.385280893568,
      "eccentricity": 0.00015585,
      "inclination_deg": 53.1605,
      "raan_deg": 172.9681,
      "arg_perigee_deg": 82.0914,
      "mean_anomaly_deg": 278.0264,
      "mean_motion_rev_day": 15.30188877
    },
    {
      "epoch": "2026-04-03T11:21:55.354176Z",
      "apogee_km": 476.1771262351922,
      "perigee_km": 474.41483447862265,
      "latitude_deg": 1.4351436023676141e-05,
      "longitude_deg": 166.12820801725604,
      "height_km": 475.88859345790723,
      "semi_major_axis_km": 6853.432980356907,
      "eccentricity": 0.00012857,
      "inclination_deg": 53.1606,
      "raan_deg": 168.4162,
      "arg_perigee_deg": 69.7065,
      "mean_anomaly_deg": 290.4074,
      "mean_motion_rev_day": 15.30172902
    },
    {
      "epoch": "2026-04-04T14:00:47.410848Z",
      "apogee_km": 476.00059409701953,
      "perigee_km": 474.3571689486307,
      "latitude_deg": -3.941201976815881e-05,
      "longitude_deg": 120.15737857408759,
      "height_km": 475.7342381146721,
      "semi_major_axis_km": 6853.315881522824,
      "eccentricity": 0.0001199,
      "inclination_deg": 53.1597,
      "raan_deg": 163.2567,
      "arg_perigee_deg": 65.3321,
      "mean_anomaly_deg": 294.7804,
      "mean_motion_rev_day": 15.3021212
    },
    {
      "epoch": "2026-04-05T11:57:35.180640Z",
      "apogee_km": 476.2748547491874,
      "perigee_km": 474.39686611597153,
      "latitude_deg": -9.448121356338581e-06,
      "longitude_deg": 145.8117438636456,
      "height_km": 475.96626077226637,
      "semi_major_axis_km": 6853.472860432579,
      "eccentricity": 0.00013701,
      "inclination_deg": 53.1592,
      "raan_deg": 159.0114,
      "arg_perigee_deg": 73.4471,
      "mean_anomaly_deg": 286.668,
      "mean_motion_rev_day": 15.30159546
    },
    {
      "epoch": "2026-04-05T21:21:53.972064Z",
      "apogee_km": 476.24680310902386,
      "perigee_km": 474.35717291125,
      "latitude_deg": 2.0024631721869358e-05,
      "longitude_deg": 2.52560886621433,
      "height_km": 476.05375660814667,
      "semi_major_axis_km": 6853.438988010137,
      "eccentricity": 0.00013786,
      "inclination_deg": 53.1608,
      "raan_deg": 157.1898,
      "arg_perigee_deg": 81.095,
      "mean_anomaly_deg": 279.0207,
      "mean_motion_rev_day": 15.3017089
    }
  ]
}